CYGFM01                 
1 41887U 16078D   26065.83395418  .00028129  00000+0  44456-3 0  9997
2 41887  34.9401 217.8651 0006818 253.2404 106.7571 15.52444596512767
CYGFM08                 
1 41888U 16078E   26066.07375917  .00029323  00000+0  43853-3 0  9994
2 41888  34.9436 198.1787 0008225 280.1361  79.8434 15.53945479513049
CYGFM07                 
1 41890U 16078G   26066.04149234  .00029879  00000+0  43581-3 0  9999
2 41890  34.9455 186.8552 0006596 299.6144  60.3922 15.54638479513069
CYGFM03                 
1 41891U 16078H   26065.75571419  .00034663  00000+0  50518-3 0  9996
2 41891  34.9409 190.7192 0005913 283.1532  76.8532 15.54643358512996
FENGYUN 3D              
1 43010U 17072A   26066.16949100  .00000364  00000+0  19409-3 0  9993
2 43010  99.0031  38.8048 0001695  18.5751 341.5486 14.19715180430512
NOAA 20 (JPSS-1)        
1 43013U 17073A   26066.07947234  .00000126  00000+0  80523-4 0  9995
2 43013  98.7690   6.4926 0001112 140.9934 219.1323 14.19535238429988
GOES 17                 
1 43226U 18022A   26066.12405812 -.00000184  00000+0  00000+0 0  9995
2 43226   0.6749  87.4941 0002093 226.3837 166.0912  1.00270120 29406
FENGYUN 2H              
1 43491U 18050A   26066.09640876 -.00000129  00000+0  00000+0 0  9996
2 43491   2.7675  80.3281 0001635 174.8713  23.3911  1.00272782 28411
METOP-C                 
1 43689U 18087A   26066.14660075  .00000135  00000+0  81404-4 0  9992
2 43689  98.6770 127.5627 0002181 103.5555 256.5865 14.21495941380339
GEO-KOMPSAT-2A          
1 43823U 18100A   26066.00441887 -.00000347  00000+0  00000+0 0  9995
2 43823   0.0434 343.1049 0001500  66.9640 244.4740  1.00274944 26604
METEOR-M2 2             
1 44387U 19038A   26066.17589781  .00000102  00000+0  63995-4 0  9991
2 44387  98.9085  51.9926 0001041   9.2004 350.9193 14.24332488346776
ARKTIKA-M 1             
1 47719U 21016A   26065.31200600 -.00000142  00000+0  00000+0 0  9995
2 47719  63.2063  72.3539 7244489 269.4705  15.1937  2.00620361 36724
FENGYUN 3E              
1 49008U 21062A   26066.23569331 -.00000058  00000+0 -63767-5 0  9992
2 49008  98.7511  70.7765 0002410  46.3682 313.7694 14.19893078242115
GOES 18                 
1 51850U 22021A   26066.14628090  .00000094  00000+0  00000+0 0  9997
2 51850   0.0304  62.9266 0000799 346.4918  31.0921  1.00273288  5562
NOAA 21 (JPSS-2)        
1 54234U 22150A   26066.11420876  .00000128  00000+0  81424-4 0  9990
2 54234  98.7552   6.4096 0002612 111.0586 249.0869 14.19551369172062
METEOSAT-12 (MTG-I1)    
1 54743U 22170C   26065.91225401 -.00000011  00000+0  00000+0 0  9999
2 54743   0.7035  21.7653 0001992 288.6085 182.3468  1.00270067 11953
TIANMU-1 03             
1 55973U 23039A   26066.15766968  .00024012  00000+0  52633-3 0  9994
2 55973  97.5176 236.3906 0004072 108.5708 251.5983 15.44080413165079
TIANMU-1 04             
1 55974U 23039B   26066.18179867  .00022048  00000+0  47689-3 0  9996
2 55974  97.5109 235.5765 0004699 104.5369 255.6401 15.44489305165088
TIANMU-1 05             
1 55975U 23039C   26066.19896792  .00021938  00000+0  48212-3 0  9991
2 55975  97.5156 236.0856 0003786 125.2205 234.9397 15.44022495165068
TIANMU-1 06             
1 55976U 23039D   26066.18165066  .00024870  00000+0  53696-3 0  9994
2 55976  97.5167 236.6058 0004146 121.2171 238.9484 15.44520471165080
FENGYUN 3G              
1 56232U 23055A   26066.19092067  .00039413  00000+0  59085-3 0  9996
2 56232  49.9925 151.8965 0010743   1.7514 358.3489 15.54431371164157
METEOR-M2 3             
1 57166U 23091A   26066.21787179  .00000007  00000+0  21996-4 0  9999
2 57166  98.6219 123.2238 0005083 104.8277 255.3465 14.24037328140007
TIANMU-1 07             
1 57399U 23101A   26065.57454230  .00008352  00000+0  29795-3 0  9991
2 57399  97.2728 118.5929 0004609 142.4105 217.7458 15.29118809145964
TIANMU-1 08             
1 57400U 23101B   26066.00237819  .00000346  00000+0  14775-4 0  9993
2 57400  97.2717 118.7901 0006381 134.2174 225.9592 15.29204228146020
TIANMU-1 09             
1 57401U 23101C   26066.18030179  .00008489  00000+0  30367-3 0  9993
2 57401  97.2673 118.4410 0004685 146.4083 213.7456 15.29024615146050
TIANMU-1 10             
1 57402U 23101D   26066.14928118  .00008839  00000+0  31465-3 0  9998
2 57402  97.2751 119.3502 0006735 141.7098 218.4622 15.29160986146040
FENGYUN 3F              
1 57490U 23111A   26066.22166493  .00000082  00000+0  59271-4 0  9993
2 57490  98.6932 138.0951 0001287  80.8701 279.2621 14.19918695134395
ARKTIKA-M 2             
1 58584U 23198A   26064.07652728  .00000150  00000+0  00000+0 0  9992
2 58584  63.2186 165.9003 6877723 267.7621  18.8474  2.00612038 16239
TIANMU-1 11             
1 58645U 23205A   26066.18294694  .00008205  00000+0  32301-3 0  9999
2 58645  97.3546  89.3741 0009294  16.9214 343.2332 15.25838606121966
TIANMU-1 12             
1 58646U 23205B   26066.14966539  .00008876  00000+0  35016-3 0  9990
2 58646  97.3535  89.1209 0007083   3.4573 356.6713 15.25762625121941
TIANMU-1 13             
1 58647U 23205C   26066.18064506  .00007378  00000+0  29118-3 0  9990
2 58647  97.3563  89.3892 0006735 343.2785  16.8230 15.25810899121942
TIANMU-1 14             
1 58648U 23205D   26066.16517613  .00007242  00000+0  28602-3 0  9998
2 58648  97.3497  88.6450 0007632 346.7956  13.3081 15.25787678121940
TIANMU-1 19             
1 58660U 23208A   26066.17890738  .00012471  00000+0  43482-3 0  9991
2 58660  97.4388 182.1633 0004076 328.3734  31.7261 15.29767193121720
TIANMU-1 20             
1 58661U 23208B   26066.23053166  .00013747  00000+0  46156-3 0  9993
2 58661  97.4327 182.7463 0006391 335.1790  24.9143 15.30959225121815
TIANMU-1 21             
1 58662U 23208C   26066.23226825  .00014323  00000+0  45182-3 0  9997
2 58662  97.4382 185.0132 0006169 328.2239  31.8630 15.32957983121932
TIANMU-1 22             
1 58663U 23208D   26066.19592060  .00011776  00000+0  41559-3 0  9993
2 58663  97.4382 182.1930 0003333   2.8449 357.2809 15.29388632121731
TIANMU-1 15             
1 58700U 24004A   26066.16293207  .00008426  00000+0  33238-3 0  9991
2 58700  97.4668 252.4043 0006892 359.2263   0.8963 15.25788399120216
TIANMU-1 16             
1 58701U 24004B   26066.21205514  .00008258  00000+0  32558-3 0  9999
2 58701  97.4609 251.7783 0005417   5.0891 355.0402 15.25821963120229
TIANMU-1 17             
1 58702U 24004C   26066.19444562  .00008569  00000+0  33739-3 0  9992
2 58702  97.4641 252.2132 0004659   8.7349 351.3970 15.25858095120219
TIANMU-1 18             
1 58703U 24004D   26066.17952766  .00008242  00000+0  32516-3 0  9991
2 58703  97.4659 252.4095 0004062  10.2335 349.8985 15.25807180120217
INSAT-3DS               
1 58990U 24033A   26066.09701542 -.00000158  00000+0  00000+0 0  9994
2 58990   0.0486 260.2461 0002168 101.4050 280.1326  1.00273118 46049
METEOR-M2 4             
1 59051U 24039A   26066.18714271  .00000070  00000+0  50817-4 0  9990
2 59051  98.6904  26.8302 0008135 102.5879 257.6209 14.22416650104768
GOES 19                 
1 60133U 24119A   26066.11850639 -.00000251  00000+0  00000+0 0  9990
2 60133   0.0464 332.0942 0001197  66.1335  94.0591  1.00271728  5948
FENGYUN 3H              
1 65815U 25219A   26066.14746762  .00000119  00000+0  76437-4 0  9992
2 65815  98.6684   8.9486 0001342  62.8385 297.2928 14.19931724 22908
OSCAR 7 (AO-7)          
1 07530U 74089B   26066.00068916 -.00000050  00000+0 -22106-4 0  9994
2 07530 101.9969  78.1615 0011987 327.3158  89.2077 12.53696327347714
PHASE 3B (AO-10)        
1 14129U 83058B   26061.53393855 -.00000164  00000+0  00000+0 0  9997
2 14129  25.9320 237.4860 6049007  86.0782 336.7646  2.05874052293290
UOSAT 2 (UO-11)         
1 14781U 84021B   26066.18971615  .00002337  00000+0  24496-3 0  9996
2 14781  97.7950  32.9918 0008222 150.7840 209.3839 14.90495218241937
LUSAT (LO-19)           
1 20442U 90005G   26066.03949195  .00000176  00000+0  79447-4 0  9994
2 20442  98.8936  84.9912 0012234 141.7272 218.4782 14.34086612887758
EYESAT A (AO-27)        
1 22825U 93061C   26066.18971896  .00000134  00000+0  68154-4 0  9992
2 22825  98.6986 133.5978 0009068  45.7344 314.4581 14.30912001692412
ITAMSAT (IO-26)         
1 22826U 93061D   26066.12951425  .00000151  00000+0  73924-4 0  9993
2 22826  98.6935 133.4450 0009335  30.2249 329.9471 14.31335939692713
RADIO ROSTO (RS15)      
1 23439U 94085A   26066.12354644 -.00000032  00000+0  28355-3 0  9997
2 23439  64.8142 108.2839 0152569  22.5115 338.2411 11.27583928284397
JAS-2 (FO-29)           
1 24278U 96046B   26066.13302071 -.00000020  00000+0  15966-4 0  9998
2 24278  98.5383 288.8984 0349931   1.4004 358.8036 13.53268552459366
TECHSAT 1B (GO-32)      
1 25397U 98043D   26065.93031390  .00000103  00000+0  64601-4 0  9991
2 25397  99.0026  56.1354 0001986 123.9868 236.1498 14.24405146436770
ISS (ZARYA)             
1 25544U 98067A   26065.86737742  .00008564  00000+0  16627-3 0  9990
2 25544  51.6318  86.3097 0008109 164.5613 195.5624 15.48482048555891
PCSAT (NO-44)           
1 26931U 01043C   26066.18354100  .00000212  00000+0  10989-3 0  9995
2 26931  67.0508 148.0942 0007005 265.2738  94.7564 14.31910626275846
SAUDISAT 1C (SO-50)     
1 27607U 02058C   26066.18941992  .00002074  00000+0  26196-3 0  9999
2 27607  64.5520  84.5051 0075199 281.1523  78.1135 14.82770448249333
CUTE-1 (CO-55)          
1 27844U 03031E   26065.96450898  .00000418  00000+0  20017-3 0  9995
2 27844  98.6780  75.7971 0010585 119.5034 240.7202 14.24263294177125
CUBESAT XI-IV (CO-57)   
1 27848U 03031J   26065.97229987  .00000340  00000+0  16835-3 0  9990
2 27848  98.6809  75.5995 0010270 135.9414 224.2584 14.23558791176835
MOZHAETS 4 (RS22)       
1 27939U 03042A   26066.21805517  .00001569  00000+0  25104-3 0  9993
2 27939  98.3432 247.7103 0010383 228.6467 246.6480 14.73244933200535
